NORAD_CAT_ID,OBJECT_NAME,OBJECT_TYPE,EPOCH,MEAN_MOTION,ECCENTRICITY,INCLINATION,RA_OF_ASC_NODE,ARG_OF_PERICENTER,MEAN_ANOMALY,BSTAR,MEAN_MOTION_DOT,MEAN_MOTION_DDOT,TLE_LINE0,TLE_LINE1,TLE_LINE2,SEMIMAJOR_AXIS,PERIOD,APOGEE,PERIGEE,DECAYED
52091.0,STARLINK-3713,PAYLOAD,2022-03-22 16:00:00,15.83596858,0.0001286999999999,53.2172,127.1286,236.3524,169.865,-0.004371,-0.00886626,0.0,0 STARLINK-3713,1 52091U 22029D   22081.66667824 -.00886626  00000-0 -43710-2 0  9995,2 52091  53.2172 127.1286 0001287 236.3524 169.8650 15.83596858  1801,6698.416,90.932,321.143,319.418,0.0
52091.0,STARLINK-3713,PAYLOAD,2022-03-23 12:00:00,15.82016713,0.000118,53.2174,122.9463,61.7831,55.5914,-0.0046443,-0.00875129,0.0,0 STARLINK-3713,1 52091U 22029D   22082.50001157 -.00875129  00000-0 -46443-2 0  9992,2 52091  53.2174 122.9463 0001180  61.7831  55.5914 15.82016713  1930,6702.875,91.023,325.531,323.949,0.0
52091.0,STARLINK-3713,PAYLOAD,2022-03-23 14:00:01,15.81857706,0.0001145,53.2172,122.5285,66.8395,165.391,-0.0046607,-0.00871986,0.0,0 STARLINK-3713,1 52091U 22029D   22082.58334491 -.00871986  00000-0 -46607-2 0  9999,2 52091  53.2172 122.5285 0001145  66.8395 165.3910 15.81857706  1422,6703.324000000001,91.032,325.957,324.422,0.0
52091.0,STARLINK-3713,PAYLOAD,2022-03-23 22:00:00,15.81230076,0.0001,53.2174,120.8564,70.0802,261.1012,-0.0048191,-0.00875115,0.0,0 STARLINK-3713,1 52091U 22029D   22082.91667824 -.00875115  00000-0 -48191-2 0  9993,2 52091  53.2174 120.8564 0001000  70.0802 261.1012 15.81230076  1473,6705.098000000001,91.068,327.634,326.293,0.0
52091.0,STARLINK-3713,PAYLOAD,2022-03-24 04:00:00,15.80760883,0.0001061,53.2176,119.605,68.28,246.6153,-0.0049476,-0.00878671,0.0,0 STARLINK-3713,1 52091U 22029D   22083.16667824 -.00878671  00000-0 -49476-2 0  9998,2 52091  53.2176 119.6050 0001061  68.2800 246.6153 15.80760883  2035,6706.425,91.095,329.001,327.578,0.0
52091.0,STARLINK-3713,PAYLOAD,2022-03-24 14:00:01,15.79970355,0.0001107,53.2173,117.5229,79.1607,87.6496,-0.0050903,-0.00872211,0.0,0 STARLINK-3713,1 52091U 22029D   22083.58334491 -.00872211  00000-0 -50903-2 0  9996,2 52091  53.2173 117.5229 0001107  79.1607  87.6496 15.79970355  1581,6708.6619999999975,91.141,331.269,329.784,0.0
52091.0,STARLINK-3713,PAYLOAD,2022-03-24 22:00:00,15.79342164,0.0001107999999999,53.2175,115.8554,68.2623,195.2299,-0.0052516,-0.00874042,0.0,0 STARLINK-3713,1 52091U 22029D   22083.91667824 -.00874042  00000-0 -52516-2 0  9998,2 52091  53.2175 115.8554 0001108  68.2623 195.2299 15.79342164  2155,6710.44,91.177,333.0490000000001,331.5619999999999,0.0
52091.0,STARLINK-3713,PAYLOAD,2022-03-25 14:00:01,15.78084535,0.0001062,53.2171,112.5314,66.4414,28.142,-0.005567,-0.00874851,0.0,0 STARLINK-3713,1 52091U 22029D   22084.58334491 -.00874851  00000-0 -55670-2 0  9995,2 52091  53.2171 112.5314 0001062  66.4414  28.1420 15.78084535  1744,6714.005,91.25,336.583,335.157,0.0
52091.0,STARLINK-3713,PAYLOAD,2022-03-25 20:00:01,15.77611986,0.0001106,53.2175,111.2841,55.49800000000001,19.9668,-0.0056805,-0.00873948,0.0,0 STARLINK-3713,1 52091U 22029D   22084.83334491 -.00873948  00000-0 -56805-2 0  9990,2 52091  53.2175 111.2841 0001106  55.4980  19.9668 15.77611986  2304,6715.346,91.277,337.9530000000001,336.468,0.0
52091.0,STARLINK-3713,PAYLOAD,2022-03-25 22:00:01,15.77453931,0.0001200999999999,53.2173,110.8685,62.848,126.2153,-0.0057111,-0.00872601,0.0,0 STARLINK-3713,1 52091U 22029D   22084.91668981 -.00872601  00000-0 -57111-2 0  9999,2 52091  53.2173 110.8685 0001201  62.8480 126.2153 15.77453931  1793,6715.794,91.286,338.466,336.853,0.0
52091.0,STARLINK-3713,PAYLOAD,2022-03-26 12:00:00,15.76351342,0.0001209,53.2176,107.9683,62.4657,199.9327,-0.0059827,-0.00870331,0.0,0 STARLINK-3713,1 52091U 22029D   22085.50001157 -.00870331  00000-0 -59827-2 0  9995,2 52091  53.2176 107.9683 0001209  62.4657 199.9327 15.76351342  2402,6718.926,91.35,341.603,339.978,0.0
52091.0,STARLINK-3713,PAYLOAD,2022-03-26 14:00:01,15.76197035,9.72e-05,53.2172,107.5537,76.2246,299.3271,-0.0060541,-0.00874202,0.0,0 STARLINK-3713,1 52091U 22029D   22085.58334491 -.00874202  00000-0 -60541-2 0  9999,2 52091  53.2172 107.5537 0000972  76.2246 299.3271 15.76197035  1909,6719.364000000001,91.359,341.88199999999995,340.576,0.0
52091.0,STARLINK-3713,PAYLOAD,2022-03-26 22:00:00,15.75566552,0.0001182,53.2173,105.8956,56.1015,51.5954,-0.006218,-0.00873297,0.0,0 STARLINK-3713,1 52091U 22029D   22085.91667824 -.00873297  00000-0 -62180-2 0  9999,2 52091  53.2173 105.8956 0001182  56.1015  51.5954 15.75566552  1955,6721.156,91.396,343.816,342.227,0.0
52091.0,STARLINK-3713,PAYLOAD,2022-03-27 04:00:00,15.75096049,0.0001299,53.2175,104.6554,40.8519,45.4555,-0.0063652,-0.00875432,0.0,0 STARLINK-3713,1 52091U 22029D   22086.16667824 -.00875432  00000-0 -63652-2 0  9995,2 52091  53.2175 104.6554 0001299  40.8519  45.4555 15.75096049  2517,6722.495,91.423,345.233,343.487,0.0
52091.0,STARLINK-3713,PAYLOAD,2022-03-27 14:00:01,15.74310378,0.0001057,53.2172,102.59,78.8836,210.8296,-0.0065945,-0.00876114,0.0,0 STARLINK-3713,1 52091U 22029D   22086.58334491 -.00876114  00000-0 -65945-2 0  9997,2 52091  53.2172 102.5900 0001057  78.8836 210.8296 15.74310378  2064,6724.731,91.469,347.307,345.885,0.0
52091.0,STARLINK-3713,PAYLOAD,2022-03-27 22:00:01,15.73527233,0.0001038,53.2173,100.9364,74.0374,305.6463,-0.0033294,-0.00449999,0.0,0 STARLINK-3713,1 52091U 22029D   22086.91668981 -.00449999  00000-0 -33294-2 0  9997,2 52091  53.2173 100.9364 0001038  74.0374 305.6463 15.73527233  2119,6726.962,91.514,349.526,348.129,0.0
52091.0,STARLINK-3713,PAYLOAD,2022-03-28 04:00:00,15.73206413,0.0001281999999999,53.2177,99.6999,55.802,300.7,-3.187e-05,-5.091e-05,0.0,0 STARLINK-3713,1 52091U 22029D   22087.16667824 -.00005091  00000-0 -31870-4 0  9991,2 52091  53.2177  99.6999 0001282  55.8020 300.7000 15.73206413  2664,6727.877,91.533,350.60400000000016,348.879,0.0
52091.0,STARLINK-3713,PAYLOAD,2022-03-28 14:00:01,15.73266834,0.0001208,53.2163,97.6392,56.536,141.3691,-0.00021077,-0.00030179,0.0,0 STARLINK-3713,1 52091U 22029D   22087.58335648 -.00030179  00000-0 -21077-3 0  9995,2 52091  53.2163  97.6392 0001208  56.5360 141.3691 15.73266834  2733,6727.705,91.529,350.38199999999995,348.75699999999995,0.0
52091.0,STARLINK-3713,PAYLOAD,2022-03-28 20:00:01,15.73217817,0.0001223,53.2166,96.4006,64.4624,110.1098,-0.00029922,-0.00042433,0.0,0 STARLINK-3713,1 52091U 22029D   22087.83334491 -.00042433  00000-0 -29922-3 0  9991,2 52091  53.2166  96.4006 0001223  64.4624 110.1098 15.73217817  2779,6727.844,91.532,350.532,348.88699999999994,0.0
52091.0,STARLINK-3713,PAYLOAD,2022-03-28 22:00:00,15.73198116,0.0001271,53.2164,95.9879,68.3661,218.4482,-0.00015181,-0.00021868,0.0,0 STARLINK-3713,1 52091U 22029D   22087.91667824 -.00021868  00000-0 -15181-3 0  9990,2 52091  53.2164  95.9879 0001271  68.3661 218.4482 15.73198116  2270,6727.901,91.533,350.621,348.91,0.0
52091.0,STARLINK-3713,PAYLOAD,2022-03-29 14:00:01,15.73155913,0.0001358,53.2163,92.6907,60.754,43.8639,0.00033776,0.00046958,0.0,0 STARLINK-3713,1 52091U 22029D   22088.58334491  .00046958  00000-0  33776-3 0  9990,2 52091  53.2163  92.6907 0001358  60.7540  43.8639 15.73155913  2376,6728.021,91.536,350.8,348.972,0.0
52091.0,STARLINK-3713,PAYLOAD,2022-03-29 22:00:00,15.731744199999998,0.0001222,53.2165,91.0392,71.6164,121.8943,0.00059174,0.00083161,0.0,0 STARLINK-3713,1 52091U 22029D   22088.91667824  .00083161  00000-0  59174-3 0  9993,2 52091  53.2165  91.0392 0001222  71.6164 121.8943 15.73174420  2438,6727.968000000003,91.535,350.655,349.011,0.0
52091.0,STARLINK-3713,PAYLOAD,2022-03-30 12:00:00,15.73231732,0.0001252,53.2165,88.1547,57.7795,201.3979,8.792299999999999e-05,0.00011753,0.0,0 STARLINK-3713,1 52091U 22029D   22089.50001157  .00011753  00000-0  87923-4 0  9992,2 52091  53.2165  88.1547 0001252  57.7795 201.3979 15.73231732  3035,6727.805,91.531,350.51199999999994,348.827,0.0
52091.0,STARLINK-3713,PAYLOAD,2022-03-30 14:00:01,15.73268998,0.0001271,53.2164,87.7417,59.2178,312.2571,-0.00049278,-0.00069413,0.0,0 STARLINK-3713,1 52091U 22029D   22089.58335648 -.00069413  00000-0 -49278-3 0  9993,2 52091  53.2164  87.7417 0001271  59.2178 312.2571 15.73268998  2536,6727.698,91.529,350.4190000000001,348.708,0.0
52091.0,STARLINK-3713,PAYLOAD,2022-03-30 20:00:01,15.73201817,0.0001169,53.2164,86.50299999999999,71.4386,276.7196,2.1146e-05,2.349e-05,0.0,0 STARLINK-3713,1 52091U 22029D   22089.83334491  .00002349  00000-0  21146-4 0  9994,2 52091  53.2164  86.5030 0001169  71.4386 276.7196 15.73201817  3082,6727.89,91.533,350.541,348.969,0.0
52091.0,STARLINK-3713,PAYLOAD,2022-03-30 22:00:00,15.73208909,0.0001187,53.2164,86.0905,74.07300000000002,26.3163,-9.285e-05,-0.00013634,0.0,0 STARLINK-3713,1 52091U 22029D   22089.91667824 -.00013634  00000-0 -92850-4 0  9993,2 52091  53.2164  86.0905 0001187  74.0730  26.3163 15.73208909  2597,6727.87,91.533,350.533,348.936,0.0
52091.0,STARLINK-3713,PAYLOAD,2022-03-31 14:00:01,15.73211913,9.59e-05,53.2163,82.7928,59.2491,218.9997,0.0002226,0.0003075,0.0,0 STARLINK-3713,1 52091U 22029D   22090.58334491  .00030750  00000-0  22260-3 0  9992,2 52091  53.2163  82.7928 0000959  59.2491 218.9997 15.73211913  2693,6727.861,91.532,350.371,349.081,0.0
52091.0,STARLINK-3713,PAYLOAD,2022-03-31 20:00:01,15.73236004,9.57e-05,53.2166,81.554,72.6948,182.2851,0.00017326,0.00023802,0.0,0 STARLINK-3713,1 52091U 22029D   22090.83334491  .00023802  00000-0  17326-3 0  9997,2 52091  53.2166  81.5540 0000957  72.6948 182.2851 15.73236004  3249,6727.793000000002,91.531,350.301,349.014,0.0
52091.0,STARLINK-3713,PAYLOAD,2022-03-31 22:00:00,15.73229267,0.0001029,53.2168,81.1414,76.6432,290.584,0.00033949,0.00047353,0.0,0 STARLINK-3713,1 52091U 22029D   22090.91667824  .00047353  00000-0  33949-3 0  9991,2 52091  53.2168  81.1414 0001029  76.6432 290.5840 15.73229267  2748,6727.812,91.531,350.369,348.9840000000001,0.0
